{"type": "FeatureCollection", "features": [ {"type": "Feature", "properties": {"norad_id": 41774, "name": "SKYSAT-C3", "group": "resource", "lat": -37.12345353128204, "lon": -167.68939973326655, "alt_km": 440.54146585632407, "timestamp": "2025-12-09T16:56:36.237557+00:00", "meta": {"OBJECT_NAME": "SKYSAT-C3", "OBJECT_ID": "2016-058E", "EPOCH": "2025-12-09T08:13:44.895936", "MEAN_MOTION": 15.44211075, "ECCENTRICITY": 0.0001608, "INCLINATION": 96.93, "RA_OF_ASC_NODE": 17.247, "ARG_OF_PERICENTER": 106.2569, "MEAN_ANOMALY": 253.8858, "EPHEMERIS_TYPE": 0, "CLASSIFICATION_TYPE": "U", "NORAD_CAT_ID": 41774, "ELEMENT_SET_NO": 999, "REV_AT_EPOCH": 51673, "BSTAR": 0.00051602, "MEAN_MOTION_DOT": 0.00023646, "MEAN_MOTION_DDOT": 0}, "tle": {"line1": "1 41774U 16058E   25343.34288074  .00023646  00000+0  51602-3 0  9993", "line2": "2 41774  96.9300  17.2470 0001608 106.2569 253.8858 15.44211075516738"}}, "geometry": {"type": "Point", "coordinates": [-167.68939973326655, -37.12345353128204]}}, {"type": "Feature", "properties": {"norad_id": 41785, "name": "ALSAT 1B", "group": "resource", "lat": 36.08582299368562, "lon": -178.65406533357788, "alt_km": 645.642461888081, "timestamp": "2025-12-09T16:56:36.237567+00:00", "meta": {"OBJECT_NAME": "ALSAT 1B", "OBJECT_ID": "2016-059C", "EPOCH": "2025-12-09T11:24:02.656800", "MEAN_MOTION": 14.72070359, "ECCENTRICITY": 0.0010614, "INCLINATION": 97.7811, "RA_OF_ASC_NODE": 355.4054, "ARG_OF_PERICENTER": 112.3579, "MEAN_ANOMALY": 247.8755, "EPHEMERIS_TYPE": 0, "CLASSIFICATION_TYPE": "U", "NORAD_CAT_ID": 41785, "ELEMENT_SET_NO": 999, "REV_AT_EPOCH": 49266, "BSTAR": 0.0001255, "MEAN_MOTION_DOT": 7.42e-06, "MEAN_MOTION_DDOT": 0}, "tle": {"line1": "1 41785U 16059C   25343.47503075  .00000742  00000+0  12550-3 0  9992", "line2": "2 41785  97.7811 355.4054 0010614 112.3579 247.8755 14.72070359492669"}}, "geometry": {"type": "Point", "coordinates": [-178.65406533357788, 36.08582299368562]}}, {"type": "Feature", "properties": {"norad_id": 41787, "name": "PATHFINDER 1", "group": "resource", "lat": -81.31722528260906, "lon": 50.67448950871364, "alt_km": 698.1650737212003, "timestamp": "2025-12-09T16:56:36.237577+00:00", "meta": {"OBJECT_NAME": "PATHFINDER 1", "OBJECT_ID": "2016-059E", "EPOCH": "2025-12-09T10:47:26.874240", "MEAN_MOTION": 14.67312744, "ECCENTRICITY": 0.0030058, "INCLINATION": 97.8139, "RA_OF_ASC_NODE": 346.3759, "ARG_OF_PERICENTER": 91.1706, "MEAN_ANOMALY": 269.2943, "EPHEMERIS_TYPE": 0, "CLASSIFICATION_TYPE": "U", "NORAD_CAT_ID": 41787, "ELEMENT_SET_NO": 999, "REV_AT_EPOCH": 49188, "BSTAR": 0.0002645, "MEAN_MOTION_DOT": 1.456e-05, "MEAN_MOTION_DDOT": 0}, "tle": {"line1": "1 41787U 16059E   25343.44961660  .00001456  00000+0  26450-3 0  9996", "line2": "2 41787  97.8139 346.3759 0030058  91.1706 269.2943 14.67312744491887"}}, "geometry": {"type": "Point", "coordinates": [50.67448950871364, -81.31722528260906]}}, {"type": "Feature", "properties": {"norad_id": 41790, "name": "SCATSAT 1", "group": "resource", "lat": 39.72923883734163, "lon": -132.82436443991926, "alt_km": 590.3908368235634, "timestamp": "2025-12-09T16:56:36.237588+00:00", "meta": {"OBJECT_NAME": "SCATSAT 1", "OBJECT_ID": "2016-059H", "EPOCH": "2025-12-09T03:19:31.895040", "MEAN_MOTION": 14.78916478, "ECCENTRICITY": 0.00560805, "INCLINATION": 98.1466, "RA_OF_ASC_NODE": 39.7639, "ARG_OF_PERICENTER": 139.3888, "MEAN_ANOMALY": 221.1527, "EPHEMERIS_TYPE": 0, "CLASSIFICATION_TYPE": "U", "NORAD_CAT_ID": 41790, "ELEMENT_SET_NO": 999, "REV_AT_EPOCH": 7349, "BSTAR": 0.00029702925, "MEAN_MOTION_DOT": 2.192e-05, "MEAN_MOTION_DDOT": 0}, "tle": {"line1": "1 41790U 16059H   25343.13856360  .00002192  00000+0  29703-3 0  9998", "line2": "2 41790  98.1466  39.7639 0056080 139.3888 221.1527 14.78916478 73491"}}, "geometry": {"type": "Point", "coordinates": [-132.82436443991926, 39.72923883734163]}}, {"type": "Feature", "properties": {"norad_id": 41875, "name": "GOKTURK 1A", "group": "resource", "lat": 39.84402387040387, "lon": -130.7507846296002, "alt_km": 680.4513442408588, "timestamp": "2025-12-09T16:56:36.237599+00:00", "meta": {"OBJECT_NAME": "GOKTURK 1A", "OBJECT_ID": "2016-073A", "EPOCH": "2025-12-09T13:28:34.529664", "MEAN_MOTION": 14.62773638, "ECCENTRICITY": 0.0001253, "INCLINATION": 98.1428, "RA_OF_ASC_NODE": 235.9687, "ARG_OF_PERICENTER": 78.6131, "MEAN_ANOMALY": 281.5212, "EPHEMERIS_TYPE": 0, "CLASSIFICATION_TYPE": "U", "NORAD_CAT_ID": 41875, "ELEMENT_SET_NO": 999, "REV_AT_EPOCH": 48110, "BSTAR": 0.00016485, "MEAN_MOTION_DOT": 7.94e-06, "MEAN_MOTION_DDOT": 0}, "tle": {"line1": "1 41875U 16073A   25343.56151076  .00000794  00000+0  16485-3 0  9996", "line2": "2 41875  98.1428 235.9687 0001253  78.6131 281.5212 14.62773638481108"}}, "geometry": {"type": "Point", "coordinates": [-130.7507846296002, 39.84402387040387]}}, {"type": "Feature", "properties": {"norad_id": 41877, "name": "RESOURCESAT-2A", "group": "resource", "lat": 1.5928125970693763, "lon": -126.17447252963005, "alt_km": 822.7221643059911, "timestamp": "2025-12-09T16:56:36.237609+00:00", "meta": {"OBJECT_NAME": "RESOURCESAT-2A", "OBJECT_ID": "2016-074A", "EPOCH": "2025-12-09T11:02:23.182656", "MEAN_MOTION": 14.21598647, "ECCENTRICITY": 0.0001134, "INCLINATION": 98.7757, "RA_OF_ASC_NODE": 53.3349, "ARG_OF_PERICENTER": 273.7455, "MEAN_ANOMALY": 86.3592, "EPHEMERIS_TYPE": 0, "CLASSIFICATION_TYPE": "U", "NORAD_CAT_ID": 41877, "ELEMENT_SET_NO": 999, "REV_AT_EPOCH": 46734, "BSTAR": 0.00031373, "MEAN_MOTION_DOT": 6.43e-06, "MEAN_MOTION_DDOT": 0}, "tle": {"line1": "1 41877U 16074A   25343.45999054  .00000643  00000+0  31373-3 0  9999", "line2": "2 41877  98.7757  53.3349 0001134 273.7455  86.3592 14.21598647467345"}}, "geometry": {"type": "Point", "coordinates": [-126.17447252963005, 1.5928125970693763]}}, {"type": "Feature", "properties": {"norad_id": 41948, "name": "CARTOSAT-2D", "group": "resource", "lat": -20.095368174278285, "lon": -141.49062985644358, "alt_km": 510.9143107043237, "timestamp": "2025-12-09T16:56:36.237619+00:00", "meta": {"OBJECT_NAME": "CARTOSAT-2D", "OBJECT_ID": "2017-008A", "EPOCH": "2025-12-09T11:19:22.315584", "MEAN_MOTION": 15.19207791, "ECCENTRICITY": 0.0004318, "INCLINATION": 97.4387, "RA_OF_ASC_NODE": 41.0186, "ARG_OF_PERICENTER": 171.4843, "MEAN_ANOMALY": 188.6465, "EPHEMERIS_TYPE": 0, "CLASSIFICATION_TYPE": "U", "NORAD_CAT_ID": 41948, "ELEMENT_SET_NO": 999, "REV_AT_EPOCH": 48877, "BSTAR": 0.00039736, "MEAN_MOTION_DOT": 8.302e-05, "MEAN_MOTION_DDOT": 0}, "tle": {"line1": "1 41948U 17008A   25343.47178606  .00008302  00000+0  39736-3 0  9991", "line2": "2 41948  97.4387  41.0186 0004318 171.4843 188.6465 15.19207791488774"}}, "geometry": {"type": "Point", "coordinates": [-141.49062985644358, -20.095368174278285]}}, {"type": "Feature", "properties": {"norad_id": 42063, "name": "SENTINEL-2B", "group": "resource", "lat": 45.63022006035956, "lon": 47.32498127441554, "alt_km": 784.4635702133301, "timestamp": "2025-12-09T16:56:36.237630+00:00", "meta": {"OBJECT_NAME": "SENTINEL-2B", "OBJECT_ID": "2017-013A", "EPOCH": "2025-12-09T11:41:34.086912", "MEAN_MOTION": 14.30814232, "ECCENTRICITY": 0.000114, "INCLINATION": 98.5717, "RA_OF_ASC_NODE": 55.9787, "ARG_OF_PERICENTER": 93.2953, "MEAN_ANOMALY": 266.836, "EPHEMERIS_TYPE": 0, "CLASSIFICATION_TYPE": "U", "NORAD_CAT_ID": 42063, "ELEMENT_SET_NO": 999, "REV_AT_EPOCH": 45751, "BSTAR": 0.00014328, "MEAN_MOTION_DOT": 3.32e-06, "MEAN_MOTION_DDOT": 0}, "tle": {"line1": "1 42063U 17013A   25343.48720008  .00000332  00000+0  14328-3 0  9991", "line2": "2 42063  98.5717  55.9787 0001140  93.2953 266.8360 14.30814232457513"}}, "geometry": {"type": "Point", "coordinates": [47.32498127441554, 45.63022006035956]}}, {"type": "Feature", "properties": {"norad_id": 42767, "name": "CARTOSAT-2E", "group": "resource", "lat": 67.8847524789587, "lon": -119.86851381029048, "alt_km": 502.6637601310358, "timestamp": "2025-12-09T16:56:36.237640+00:00", "meta": {"OBJECT_NAME": "CARTOSAT-2E", "OBJECT_ID": "2017-036C", "EPOCH": "2025-12-09T11:42:53.864352", "MEAN_MOTION": 15.19275124, "ECCENTRICITY": 0.0002289, "INCLINATION": 97.4556, "RA_OF_ASC_NODE": 41.1169, "ARG_OF_PERICENTER": 252.8457, "MEAN_ANOMALY": 107.2526, "EPHEMERIS_TYPE": 0, "CLASSIFICATION_TYPE": "U", "NORAD_CAT_ID": 42767, "ELEMENT_SET_NO": 999, "REV_AT_EPOCH": 46934, "BSTAR": 0.00047434, "MEAN_MOTION_DOT": 9.943e-05, "MEAN_MOTION_DDOT": 0}, "tle": {"line1": "1 42767U 17036C   25343.48812343  .00009943  00000+0  47434-3 0  9992", "line2": "2 42767  97.4556  41.1169 0002289 252.8457 107.2526 15.19275124469346"}}, "geometry": {"type": "Point", "coordinates": [-119.86851381029048, 67.8847524789587]}}, {"type": "Feature", "properties": {"norad_id": 42920, "name": "FORMOSAT-5", "group": "resource", "lat": -8.286580130128556, "lon": -123.12504908657405, "alt_km": 729.6568833442589, "timestamp": "2025-12-09T16:56:36.237651+00:00", "meta": {"OBJECT_NAME": "FORMOSAT-5", "OBJECT_ID": "2017-049A", "EPOCH": "2025-12-09T11:06:45.391104", "MEAN_MOTION": 14.51002678, "ECCENTRICITY": 0.0010016, "INCLINATION": 98.2455, "RA_OF_ASC_NODE": 57.847, "ARG_OF_PERICENTER": 306.6606, "MEAN_ANOMALY": 53.3667, "EPHEMERIS_TYPE": 0, "CLASSIFICATION_TYPE": "U", "NORAD_CAT_ID": 42920, "ELEMENT_SET_NO": 999, "REV_AT_EPOCH": 43916, "BSTAR": 0.00013537, "MEAN_MOTION_DOT": 4.92e-06, "MEAN_MOTION_DDOT": 0}, "tle": {"line1": "1 42920U 17049A   25343.46302536  .00000492  00000+0  13537-3 0  9990", "line2": "2 42920  98.2455  57.8470 0010016 306.6606  53.3667 14.51002678439165"}}, "geometry": {"type": "Point", "coordinates": [-123.12504908657405, -8.286580130128556]}}]}